{
  "norad_id": 66166,
  "name": "STARLINK-35624",
  "history": [
    {
      "epoch": "2026-03-28T21:29:57.480288Z",
      "apogee_km": 476.03115368817726,
      "perigee_km": 474.5439605592819,
      "latitude_deg": -5.138853192496609e-05,
      "longitude_deg": -175.54012029236017,
      "height_km": 476.04173817025315,
      "semi_major_axis_km": 6853.424557123729,
      "eccentricity": 0.0001085,
      "inclination_deg": 53.1593,
      "raan_deg": 333.2591,
      "arg_perigee_deg": 78.8262,
      "mean_anomaly_deg": 281.286,
      "mean_motion_rev_day": 15.30175723
    }
  ]
}